{
  "norad_id": 63773,
  "name": "STARLINK-33769",
  "history": [
    {
      "epoch": "2026-03-28T20:48:50.923584Z",
      "apogee_km": 484.16115093055305,
      "perigee_km": 481.7523581352116,
      "latitude_deg": 3.402029751498535e-05,
      "longitude_deg": 158.16441218598018,
      "height_km": 482.71441986024416,
      "semi_major_axis_km": 6861.093754532882,
      "eccentricity": 0.00017554,
      "inclination_deg": 43.0018,
      "raan_deg": 296.6581,
      "arg_perigee_deg": 270.9286,
      "mean_anomaly_deg": 89.1365,
      "mean_motion_rev_day": 15.27610839
    }
  ]
}